ONEWEB-0395             
1 50475U 21132G   26189.45384135  .00000002  00000+0 -29467-4 0  9993
2 50475  87.8878  16.8320 0002064  85.7484 274.3880 13.11415184218504
ONEWEB-0396             
1 50476U 21132H   26188.95741099  .00000045  00000+0  81386-4 0  9998
2 50476  87.9190 331.3246 0001761  91.3301 268.8033 13.18686284224377
ONEWEB-0397             
1 50477U 21132J   26189.35196562  .00000094  00000+0  20498-3 0  9993
2 50477  87.9190 331.2459 0001643  93.1360 266.9960 13.18686539224402
ONEWEB-0398             
1 50478U 21132K   26189.49793123  .00000358  00000+0  97300-3 0  9994
2 50478  87.8888  16.8153 0002173  89.8263 270.3114 13.11418324218407
ONEWEB-0399             
1 50479U 21132L   26188.95028488 -.00000140  00000+0 -42975-3 0  9999
2 50479  87.8891  16.9357 0001708  73.3989 286.7326 13.11418385218329
ONEWEB-0400             
1 50480U 21132M   26189.33003005 -.00000589  00000+0 -15255-2 0  9999
2 50480  87.9194 331.2408 0002236  96.3655 263.7732 13.18691027224393
ONEWEB-0401             
1 50481U 21132N   26189.37557468  .00000078  00000+0  16476-3 0  9999
2 50481  87.9190 331.2284 0001696 102.8964 257.2358 13.18686315224405
ONEWEB-0402             
1 50482U 21132P   26189.33847414  .00000063  00000+0  12786-3 0  9993
2 50482  87.9187 331.2244 0001441 103.3077 256.8216 13.18687573224424
ONEWEB-0403             
1 50483U 21132Q   26188.90851317  .00000036  00000+0  58593-4 0  9990
2 50483  87.9191 331.3341 0001869  91.8857 268.2489 13.18685982224320
ONEWEB-0404             
1 50484U 21132R   26189.46569951 -.00000427  00000+0 -12419-2 0  9994
2 50484  87.8882  16.8305 0001953  78.9732 281.1616 13.11414984218485
ONEWEB-0405             
1 50485U 21132S   26189.37724823 -.00000008  00000+0 -52952-4 0  9999
2 50485  87.9194 331.2260 0002353  98.7697 261.3702 13.18684660224785
ONEWEB-0406             
1 50486U 21132T   26189.36882635  .00000045  00000+0  82200-4 0  9993
2 50486  87.9187 331.2432 0001934  80.7565 279.3786 13.18686318224411
ONEWEB-0407             
1 50487U 21132U   26189.36207640  .00000067  00000+0  13738-3 0  9994
2 50487  87.9192 331.2373 0001881 103.8793 256.2548 13.18687820224355
ONEWEB-0409             
1 50488U 21132V   26188.92993150 -.00000447  00000+0 -12960-2 0  9993
2 50488  87.8885  16.9258 0002042  82.2957 277.8402 13.11415446218307
ONEWEB-0412             
1 50489U 21132W   26189.35027970  .00000073  00000+0  15210-3 0  9995
2 50489  87.9188 331.2477 0001573 100.8548 259.2761 13.18686236224440
ONEWEB-0413             
1 50490U 21132X   26189.35534036  .00000070  00000+0  14479-3 0  9996
2 50490  87.9180 331.2434 0001698 104.6968 255.4352 13.18687411224386
ONEWEB-0414             
1 50491U 21132Y   26188.96078144  .00000095  00000+0  20811-3 0  9990
2 50491  87.9189 331.3062 0001688  96.8196 263.3129 13.18685959224361
ONEWEB-0417             
1 50492U 21132Z   26189.34859158  .00000109  00000+0  24310-3 0  9990
2 50492  87.9183 331.2472 0001921  89.5152 270.6201 13.18686483224399
ONEWEB-0418             
1 50493U 21132AA  26188.90330843  .00000064  00000+0  12942-3 0  9995
2 50493  87.9185 331.3361 0001970  88.8455 271.2903 13.18685550224392
ONEWEB-0419             
1 50494U 21132AB  26189.37749001  .00000013  00000+0  10266-5 0  9991
2 50494  87.9192 331.2421 0002137  93.3437 266.7939 13.18666128224370
ONEWEB-0420             
1 50495U 21132AC  26189.34183647  .00000069  00000+0  14351-3 0  9995
2 50495  87.9179 331.2504 0001901 103.1209 257.0136 13.18687299224366
ONEWEB-0421             
1 50496U 21132AD  26189.33511399 -.00000125  00000+0 -34986-3 0  9995
2 50496  87.9190 331.2508 0001325  92.9873 267.1411 13.18684347224400
ONEWEB-0424             
1 50497U 21132AE  26189.37220268  .00000034  00000+0  54139-4 0  9992
2 50497  87.9189 331.2415 0002255  95.3510 264.7879 13.18686303224432
ONEWEB-0426             
1 50498U 21132AF  26189.33089065  .00000055  00000+0  10736-3 0  9994
2 50498  87.9189 331.2408 0001572  75.0439 285.0867 13.18686155224372
ONEWEB-0427             
1 50499U 21132AG  26189.37051750  .00000057  00000+0  11240-3 0  9992
2 50499  87.9192 331.2219 0001880  90.6331 269.5017 13.18686131224405
ONEWEB-0429             
1 50500U 21132AH  26189.35701784  .00000085  00000+0  18318-3 0  9996
2 50500  87.9182 331.2477 0001858 100.8262 259.3079 13.18686867224372
ONEWEB-0430             
1 50501U 21132AJ  26189.34521892  .00000070  00000+0  14461-3 0  9995
2 50501  87.9185 331.2484 0001995 104.6403 255.4950 13.18687769224417
ONEWEB-0432             
1 50502U 21132AK  26189.32822667  .00000066  00000+0  13456-3 0  9996
2 50502  87.9191 331.2377 0002316 100.6650 259.4743 13.18686249224364
ONEWEB-0440             
1 50503U 21132AL  26189.36545166  .00000101  00000+0  22275-3 0  9996
2 50503  87.9192 331.2418 0001602 104.1508 255.9802 13.18686402224368
ONEWEB-0450             
1 50504U 21132AM  26189.35884794  .00000076  00000+0  16105-3 0  9995
2 50504  87.9182 331.2461 0001924 102.1679 257.9669 13.18686750224392
