OBJECT_NAME,OBJECT_ID,EPOCH,MEAN_MOTION,ECCENTRICITY,INCLINATION,RA_OF_ASC_NODE,ARG_OF_PERICENTER,MEAN_ANOMALY,EPHEMERIS_TYPE,CLASSIFICATION_TYPE,NORAD_CAT_ID,ELEMENT_SET_NO,REV_AT_EPOCH,BSTAR,MEAN_MOTION_DOT,MEAN_MOTION_DDOT
ONEWEB-0395,2021-132G,2026-07-08T10:53:31.892640,13.11415184,.0002064,87.8878,16.8320,85.7484,274.3880,0,U,50475,999,21850,-.29466984E-4,.2E-7,0
ONEWEB-0396,2021-132H,2026-07-07T22:58:40.309536,13.18686284,.00017614,87.9190,331.3246,91.3301,268.8033,0,U,50476,999,22437,.81386107E-4,.45E-6,0
ONEWEB-0397,2021-132J,2026-07-08T08:26:49.829568,13.18686539,.00016432,87.9190,331.2459,93.1360,266.9960,0,U,50477,999,22440,.20497808E-3,.94E-6,0
ONEWEB-0398,2021-132K,2026-07-08T11:57:01.258272,13.11418324,.00021737,87.8888,16.8153,89.8263,270.3114,0,U,50478,999,21840,.97299936E-3,.358E-5,0
ONEWEB-0399,2021-132L,2026-07-07T22:48:24.613632,13.11418385,.00017084,87.8891,16.9357,73.3989,286.7326,0,U,50479,999,21832,-.42974661E-3,-.14E-5,0
ONEWEB-0400,2021-132M,2026-07-08T07:55:14.596320,13.18691027,.00022364,87.9194,331.2408,96.3655,263.7732,0,U,50480,999,22439,-.15255182E-2,-.589E-5,0
ONEWEB-0401,2021-132N,2026-07-08T09:00:49.652352,13.18686315,.0001696,87.9190,331.2284,102.8964,257.2358,0,U,50481,999,22440,.16475998E-3,.78E-6,0
ONEWEB-0402,2021-132P,2026-07-08T08:07:24.165696,13.18687573,.00014419,87.9187,331.2244,103.3077,256.8216,0,U,50482,999,22442,.12786338E-3,.63E-6,0
ONEWEB-0403,2021-132Q,2026-07-07T21:48:15.537888,13.18685982,.0001869,87.9191,331.3341,91.8857,268.2489,0,U,50483,999,22432,.58592502E-4,.36E-6,0
ONEWEB-0404,2021-132R,2026-07-08T11:10:36.437664,13.11414984,.00019538,87.8882,16.8305,78.9732,281.1616,0,U,50484,999,21848,-.12419137E-2,-.427E-5,0
ONEWEB-0405,2021-132S,2026-07-08T09:03:14.247072,13.18684660,.00023534,87.9194,331.2260,98.7697,261.3702,0,U,50485,999,22478,-.52951836E-4,-.8E-7,0
ONEWEB-0406,2021-132T,2026-07-08T08:51:06.596640,13.18686318,.00019347,87.9187,331.2432,80.7565,279.3786,0,U,50486,999,22441,.8220015E-4,.45E-6,0
ONEWEB-0407,2021-132U,2026-07-08T08:41:23.400960,13.18687820,.00018812,87.9192,331.2373,103.8793,256.2548,0,U,50487,999,22435,.13737783E-3,.67E-6,0
ONEWEB-0409,2021-132V,2026-07-07T22:19:06.081600,13.11415446,.00020423,87.8885,16.9258,82.2957,277.8402,0,U,50488,999,21830,-.12959504E-2,-.447E-5,0
ONEWEB-0412,2021-132W,2026-07-08T08:24:24.166080,13.18686236,.00015735,87.9188,331.2477,100.8548,259.2761,0,U,50489,999,22444,.15210485E-3,.73E-6,0
ONEWEB-0413,2021-132X,2026-07-08T08:31:41.407104,13.18687411,.00016989,87.9180,331.2434,104.6968,255.4352,0,U,50490,999,22438,.14478573E-3,.7E-6,0
ONEWEB-0414,2021-132Y,2026-07-07T23:03:31.516416,13.18685959,.00016884,87.9189,331.3062,96.8196,263.3129,0,U,50491,999,22436,.20811073E-3,.95E-6,0
ONEWEB-0417,2021-132Z,2026-07-08T08:21:58.312512,13.18686483,.0001921,87.9183,331.2472,89.5152,270.6201,0,U,50492,999,22439,.24310165E-3,.109E-5,0
ONEWEB-0418,2021-132AA,2026-07-07T21:40:45.848352,13.18685550,.00019701,87.9185,331.3361,88.8455,271.2903,0,U,50493,999,22439,.12942465E-3,.64E-6,0
ONEWEB-0419,2021-132AB,2026-07-08T09:03:35.136864,13.18666128,.00021373,87.9192,331.2421,93.3437,266.7939,0,U,50494,999,22437,.1026605E-5,.13E-6,0
ONEWEB-0420,2021-132AC,2026-07-08T08:12:14.671008,13.18687299,.00019019,87.9179,331.2504,103.1209,257.0136,0,U,50495,999,22436,.14351377E-3,.69E-6,0
ONEWEB-0421,2021-132AD,2026-07-08T08:02:33.848736,13.18684347,.00013258,87.9190,331.2508,92.9873,267.1411,0,U,50496,999,22440,-.34986449E-3,-.125E-5,0
ONEWEB-0424,2021-132AE,2026-07-08T08:55:58.311552,13.18686303,.00022558,87.9189,331.2415,95.3510,264.7879,0,U,50497,999,22443,.54138943E-4,.34E-6,0
ONEWEB-0426,2021-132AF,2026-07-08T07:56:28.952160,13.18686155,.00015721,87.9189,331.2408,75.0439,285.0867,0,U,50498,999,22437,.10736139E-3,.55E-6,0
ONEWEB-0427,2021-132AG,2026-07-08T08:53:32.712000,13.18686131,.00018806,87.9192,331.2219,90.6331,269.5017,0,U,50499,999,22440,.11240473E-3,.57E-6,0
ONEWEB-0429,2021-132AH,2026-07-08T08:34:06.341376,13.18686867,.00018588,87.9182,331.2477,100.8262,259.3079,0,U,50500,999,22437,.18318129E-3,.85E-6,0
ONEWEB-0430,2021-132AJ,2026-07-08T08:17:06.914688,13.18687769,.00019955,87.9185,331.2484,104.6403,255.4950,0,U,50501,999,22441,.14461223E-3,.7E-6,0
ONEWEB-0432,2021-132AK,2026-07-08T07:52:38.784288,13.18686249,.00023161,87.9191,331.2377,100.6650,259.4743,0,U,50502,999,22436,.13455654E-3,.66E-6,0
ONEWEB-0440,2021-132AL,2026-07-08T08:46:15.023424,13.18686402,.00016028,87.9192,331.2418,104.1508,255.9802,0,U,50503,999,22436,.22275182E-3,.101E-5,0
ONEWEB-0450,2021-132AM,2026-07-08T08:36:44.462016,13.18686750,.00019249,87.9182,331.2461,102.1679,257.9669,0,U,50504,999,22439,.16104919E-3,.76E-6,0
